NUSAT-49 (KLARA DAN VO*)
1 60500U 24149AJ  26068.79810190  .00012912  00000+0  43568-3 0  9991
2 60500  97.3807 150.7380 0001132 286.7761  73.3356 15.30828857 86935
STARLINK-35316          
1 65742U 25216J   26068.88743794  .00028387  00000+0  96658-3 0  9996
2 65742  53.1590 331.9965 0000814  45.0164 315.0902 15.30210448 25496
